H1 CPF 01  gfz 2022 05 29 12  6492 terrasarx 
H2 0702601  6201 31698    2022 05 29 12 59 42 2022 06 03 00 00 42   120 1 1  0 0 0
H9
10 0 59732  48942.000000  0    -603074.763  -3340502.038   5983931.647
10 0 59732  49062.000000  0   -1004177.754  -4012628.230   5498547.694
10 0 59732  49182.000000  0   -1398833.014  -4607712.042   4916448.779
10 0 59732  49302.000000  0   -1778699.751  -5115513.637   4247838.840
10 0 59732  49422.000000  0   -2135526.736  -5527460.223   3504457.017
10 0 59732  49542.000000  0   -2461330.381  -5836800.018   2699372.332
10 0 59732  49662.000000  0   -2748570.872  -6038719.956   1846752.647
10 0 59732  49782.000000  0   -2990322.312  -6130426.349    961611.777
10 0 59732  49902.000000  0   -3180432.786  -6111185.672     59538.855
10 0 59732  50022.000000  0   -3313670.135  -5982323.932   -843584.250
10 0 59732  50142.000000  0   -3385849.813  -5747184.320  -1731871.676
10 0 59732  50262.000000  0   -3393941.471  -5411043.751  -2589721.559
10 0 59732  50382.000000  0   -3336151.633  -4980990.995  -3402096.843
10 0 59732  50502.000000  0   -3211979.868  -4465769.687  -4154792.302
10 0 59732  50622.000000  0   -3022247.921  -3875592.031  -4834681.731
10 0 59732  50742.000000  0   -2769102.345  -3221928.494  -5429942.067
10 0 59732  50862.000000  0   -2455991.169  -2517278.195  -5930251.054
10 0 59732  50982.000000  0   -2087615.082  -1774925.693  -6326956.448
10 0 59732  51102.000000  0   -1669853.661  -1008688.603  -6613214.843
10 0 59732  51222.000000  0   -1209669.598   -232661.403  -6784097.756
10 0 59732  51342.000000  0    -714993.444    539039.356  -6836666.252
10 0 59732  51462.000000  0    -194589.058   1292525.191  -6770016.071
10 0 59732  51582.000000  0     342097.599   2014379.028  -6585291.093
10 0 59732  51702.000000  0     885104.626   2691888.366  -6285667.822
10 0 59732  51822.000000  0    1424135.782   3313266.483  -5876307.420
10 0 59732  51942.000000  0    1948751.286   3867856.741  -5364275.005
10 0 59732  52062.000000  0    2448566.857   4346316.950  -4758428.986
10 0 59732  52182.000000  0    2913457.677   4740782.254  -4069279.363
10 0 59732  52302.000000  0    3333762.961   5045002.269  -3308814.995
10 0 59732  52422.000000  0    3700487.721   5254448.926  -2490302.852
10 0 59732  52542.000000  0    4005497.100   5366391.844  -1628060.101
10 0 59732  52662.000000  0    4241697.199   5379939.025   -737204.087
10 0 59732  52782.000000  0    4403198.470   5296041.780    166616.544
10 0 59732  52902.000000  0    4485457.120   5117461.193   1067503.498
10 0 59732  53022.000000  0    4485389.024   4848697.737   1949595.780
10 0 59732  53142.000000  0    4401456.554   4495888.472   2797356.670
10 0 59732  53262.000000  0    4233723.374   4066669.345   3595857.754
10 0 59732  53382.000000  0    3983874.383   3570007.988   4331047.774
10 0 59732  53502.000000  0    3655204.450   3016012.469   4990002.233
10 0 59732  53622.000000  0    3252574.506   2415721.412   5561153.508
10 0 59732  53742.000000  0    2782333.337   1780878.018   6034490.270
10 0 59732  53862.000000  0    2252213.648   1123696.882   6401727.327
10 0 59732  53982.000000  0    1671200.947    456626.076   6656444.292
10 0 59732  54102.000000  0    1049378.270   -207888.098   6794191.589
10 0 59732  54222.000000  0     397749.654   -857632.517   6812564.934
10 0 59732  54342.000000  0    -271955.191  -1480852.136   6711244.550
10 0 59732  54462.000000  0    -947492.094  -2066462.335   6491999.837
10 0 59732  54582.000000  0   -1616325.551  -2604246.083   6158658.893
10 0 59732  54702.000000  0   -2265858.729  -3085032.060   5717045.620
10 0 59732  54822.000000  0   -2883670.410  -3500853.871   5174886.204
10 0 59732  54942.000000  0   -3457756.601  -3845086.913   4541680.805
10 0 59732  55062.000000  0   -3976768.254  -4112557.905   3828540.753
10 0 59732  55182.000000  0   -4430239.408  -4299626.129   3047996.305
10 0 59732  55302.000000  0   -4808802.457  -4404234.956   2213778.007
10 0 59732  55422.000000  0   -5104386.467  -4425932.267   1340572.968
10 0 59732  55542.000000  0   -5310391.694  -4365857.158    443760.705
10 0 59732  55662.000000  0   -5421836.346  -4226694.151   -460865.077
10 0 59732  55782.000000  0   -5435471.652  -4012595.878  -1357383.671
10 0 59732  55902.000000  0   -5349861.467  -3729075.359  -2230037.615
10 0 59732  56022.000000  0   -5165423.612  -3382870.689  -3063517.112
10 0 59732  56142.000000  0   -4884434.062  -2981787.744  -3843232.567
10 0 59732  56262.000000  0   -4510994.866  -2534524.526  -4555570.577
10 0 59732  56382.000000  0   -4050966.330  -2050481.745  -5188128.920
10 0 59732  56502.000000  0   -3511865.977  -1539564.513  -5729926.097
10 0 59732  56622.000000  0   -2902737.551  -1011979.286  -6171582.697
10 0 59732  56742.000000  0   -2233993.197   -478030.924  -6505472.761
10 0 59732  56862.000000  0   -1517231.395     52075.947  -6725843.861
10 0 59732  56982.000000  0    -765035.668    568427.313  -6828904.463
10 0 59732  57102.000000  0       9242.197   1061580.058  -6812882.030
10 0 59732  57222.000000  0     791713.023   1522729.991  -6678049.789
10 0 59732  57342.000000  0    1568192.936   1943864.831  -6426725.076
10 0 59732  57462.000000  0    2324455.602   2317901.880  -6063233.908
10 0 59732  57582.000000  0    3046488.812   2638806.594  -5593844.276
10 0 59732  57702.000000  0    3720750.834   2901690.336  -5026667.521
10 0 59732  57822.000000  0    4334424.847   3102887.110  -4371530.827
10 0 59732  57942.000000  0    4875667.014   3240007.061  -3639817.513
10 0 59732  58062.000000  0    5333841.109   3311964.373  -2844277.121
10 0 59732  58182.000000  0    5699734.874   3318980.333  -1998809.590
10 0 59732  58302.000000  0    5965754.409   3262559.917  -1118223.861
10 0 59732  58422.000000  0    6126088.852   3145440.934   -217976.394
10 0 59732  58542.000000  0    6176842.231   2971517.667    686105.288
10 0 59732  58662.000000  0    6116127.912   2745739.350   1578108.241
10 0 59732  58782.000000  0    5944122.611   2473988.841   2442322.348
10 0 59732  58902.000000  0    5663079.565   2162942.105   3263526.258
10 0 59732  59022.000000  0    5277298.277   1819911.955   4027263.343
10 0 59732  59142.000000  0    4793052.757   1452681.250   4720101.314
10 0 59732  59262.000000  0    4218481.506   1069329.509   5329868.676
10 0 59732  59382.000000  0    3563443.237    678057.254   5845868.830
10 0 59732  59502.000000  0    2839337.047    287011.891   6259064.007
10 0 59732  59622.000000  0    2058897.276    -95879.436   6562225.974
10 0 59732  59742.000000  0    1235966.125   -463068.302   6750056.997
10 0 59732  59862.000000  0     385245.134   -807532.674   6819278.382
10 0 59732  59982.000000  0    -477969.080  -1122910.244   6768683.165
10 0 59732  60102.000000  0   -1338059.332  -1403615.633   6599155.128
10 0 59732  60222.000000  0   -2179369.176  -1644939.359   6313653.083
10 0 59732  60342.000000  0   -2986485.580  -1843126.084   5917162.441
10 0 59732  60462.000000  0   -3744522.369  -1995433.401   5416616.555
10 0 59732  60582.000000  0   -4439400.175  -2100170.191   4820781.565
10 0 59732  60702.000000  0   -5058113.984  -2156712.324   4140107.564
10 0 59732  60822.000000  0   -5588983.655  -2165494.732   3386548.396
10 0 59732  60942.000000  0   -6021882.163  -2127980.440   2573354.045
10 0 59732  61062.000000  0   -6348438.061  -2046608.506   1714838.242
10 0 59732  61182.000000  0   -6562207.209  -1924720.929    826121.818
10 0 59732  61302.000000  0   -6658804.640  -1766469.078    -77141.357
10 0 59732  61422.000000  0   -6635996.672  -1576702.608   -979048.523
10 0 59732  61542.000000  0   -6493748.721  -1360843.942  -1863737.568
10 0 59732  61662.000000  0   -6234228.412  -1124752.027  -2715673.850
10 0 59732  61782.000000  0   -5861764.870   -874579.141  -3519928.581
10 0 59732  61902.000000  0   -5382765.743   -616623.415  -4262443.241
10 0 59732  62022.000000  0   -4805594.622   -357180.894  -4930274.413
10 0 59732  62142.000000  0   -4140412.399   -102401.580  -5511814.607
10 0 59732  62262.000000  0   -3398986.722    141847.395  -5996985.963
10 0 59732  62382.000000  0   -2594475.077    370108.917  -6377403.137
10 0 59732  62502.000000  0   -1741187.617    577450.323  -6646506.146
10 0 59732  62622.000000  0    -854332.072    759563.279  -6799662.984
10 0 59732  62742.000000  0      50253.855    912848.962  -6834239.747
10 0 59732  62862.000000  0     956377.767   1034485.875  -6749640.295
10 0 59732  62982.000000  0    1847775.209   1122479.905  -6547318.221
10 0 59732  63102.000000  0    2708396.166   1175696.991  -6230754.898
10 0 59732  63222.000000  0    3522689.463   1193876.827  -5805405.342
10 0 59732  63342.000000  0    4275880.205   1177627.266  -5278612.834
10 0 59732  63462.000000  0    4954238.624   1128399.913  -4659494.297
10 0 59732  63582.000000  0    5545335.812   1048447.409  -3958793.546
10 0 59732  63702.000000  0    6038279.390    940762.411  -3188704.220
10 0 59732  63822.000000  0    6423924.760    808999.315  -2362665.256
10 0 59732  63942.000000  0    6695057.890    657380.700  -1495130.408
10 0 59732  64062.000000  0    6846542.853    490589.633   -601314.218
10 0 59732  64182.000000  0    6875428.715    313650.657    303078.954
10 0 59732  64302.000000  0    6781014.545    131803.194   1202136.830
10 0 59732  64422.000000  0    6564870.157    -49631.318   2080027.653
10 0 59732  64542.000000  0    6230810.128   -225383.588   2921288.743
10 0 59732  64662.000000  0    5784821.687   -390369.392   3711107.027
10 0 59732  64782.000000  0    5234949.388   -539816.589   4435584.832
10 0 59732  64902.000000  0    4591142.080   -669383.978   5081987.942
10 0 59732  65022.000000  0    3865061.532   -775269.582   5638969.991
10 0 59732  65142.000000  0    3069861.104   -854303.897   6096767.815
10 0 59732  65262.000000  0    2219939.765   -904028.187   6447367.690
10 0 59732  65382.000000  0    1330676.420   -922755.734   6684639.981
99
